{
    "links": {
        "self": "http://www.neowsapp.com/rest/v1/neo/54054738?api_key=iIulBulltgU6a56xZRHN4H3l9WmuAYTsLGpBGhQ2"
    },
    "id": "54054738",
    "neo_reference_id": "54054738",
    "name": "(2020 TB)",
    "designation": "2020 TB",
    "nasa_jpl_url": "http://ssd.jpl.nasa.gov/sbdb.cgi?sstr=54054738",
    "absolute_magnitude_h": 24.706,
    "estimated_diameter": {
        "kilometers": {
            "estimated_diameter_min": 0.0304337155,
            "estimated_diameter_max": 0.0680518567
        },
        "meters": {
            "estimated_diameter_min": 30.4337155121,
            "estimated_diameter_max": 68.0518566929
        },
        "miles": {
            "estimated_diameter_min": 0.0189106282,
            "estimated_diameter_max": 0.0422854502
        },
        "feet": {
            "estimated_diameter_min": 99.8481512006,
            "estimated_diameter_max": 223.2672535122
        }
    },
    "is_potentially_hazardous_asteroid": false,
    "close_approach_data": [
        {
            "close_approach_date": "2018-09-23",
            "close_approach_date_full": "2018-Sep-23 19:44",
            "epoch_date_close_approach": 1537731840000,
            "relative_velocity": {
                "kilometers_per_second": "9.7252451912",
                "kilometers_per_hour": "35010.8826882617",
                "miles_per_hour": "21754.400968159"
            },
            "miss_distance": {
                "astronomical": "0.0956638805",
                "lunar": "37.2132495145",
                "kilometers": "14311112.758734535",
                "miles": "8892513.116965183"
            },
            "orbiting_body": "Earth"
        },
        {
            "close_approach_date": "2020-10-07",
            "close_approach_date_full": "2020-Oct-07 18:25",
            "epoch_date_close_approach": 1602095100000,
            "relative_velocity": {
                "kilometers_per_second": "7.7579956113",
                "kilometers_per_hour": "27928.784200744",
                "miles_per_hour": "17353.8603829567"
            },
            "miss_distance": {
                "astronomical": "0.0295155571",
                "lunar": "11.4815517119",
                "kilometers": "4415464.474023377",
                "miles": "2743642.3997695226"
            },
            "orbiting_body": "Earth"
        }
    ],
    "orbital_data": {
        "orbit_id": "1",
        "orbit_determination_date": "2020-10-05 18:42:09",
        "first_observation_date": "2020-10-04",
        "last_observation_date": "2020-10-05",
        "data_arc_in_days": 1,
        "observations_used": 30,
        "orbit_uncertainty": "8",
        "minimum_orbit_intersection": ".0246954",
        "jupiter_tisserand_invariant": "4.266",
        "epoch_osculation": "2459127.5",
        "eccentricity": ".3729318772525277",
        "semi_major_axis": "1.59876265650657",
        "inclination": "10.62805645302662",
        "ascending_node_longitude": "188.8554352143433",
        "orbital_period": "738.370641373911",
        "perihelion_distance": "1.002533097734337",
        "perihelion_argument": "205.0010587892234",
        "aphelion_distance": "2.194992215278803",
        "perihelion_time": "2459147.778735994609",
        "mean_anomaly": "350.1128992013073",
        "mean_motion": ".4875600136675748",
        "equinox": "J2000",
        "orbit_class": {
            "orbit_class_type": "APO",
            "orbit_class_description": "Near-Earth asteroid orbits which cross the Earth’s orbit similar to that of 1862 Apollo",
            "orbit_class_range": "a (semi-major axis) > 1.0 AU; q (perihelion) < 1.017 AU"
        }
    },
    "is_sentry_object": false
}